{
  "type": "FeatureCollection",
  "bbox": [
    -1.6613,
    48.1112,
    -1.6582,
    48.1141
  ],
  "metadata": {
    "schema_version": 1,
    "imported_at": "2026-09-09T17:57:12.797Z",
    "rennes_metropole": {
      "source_url": "https://data.rennesmetropole.fr/explore/dataset/espaces_verts/",
      "license": "Licence ODbL 1.0",
      "license_url": "https://opendatacommons.org/licenses/odbl/1-0/"
    },
    "buildings": {
      "source_url": "https://public.sig.rennesmetropole.fr/header/geoservices",
      "license": "Licence ODbL 1.0",
      "license_url": "https://opendatacommons.org/licenses/odbl/1-0/"
    },
    "openstreetmap": {
      "source_url": "https://api.openstreetmap.org/api/0.6/map?bbox=-1.6613%2C48.1112%2C-1.6582%2C48.1141",
      "license": "ODbL 1.0",
      "license_url": "https://opendatacommons.org/licenses/odbl/1-0/"
    }
  },
  "features": [
    {
      "type": "Feature",
      "id": "rennes-parc-oberthur",
      "geometry": {
        "type": "MultiPolygon",
        "coordinates": [
          [
            [
              [
                -1.658992921200845,
                48.11304229312375
              ],
              [
                -1.658790292901293,
                48.11260808930399
              ],
              [
                -1.658600268089178,
                48.1121985871807
              ],
              [
                -1.658389199285015,
                48.111743157024954
              ],
              [
                -1.658539113363691,
                48.111705863431
              ],
              [
                -1.658571172212087,
                48.11168436818945
              ],
              [
                -1.658715791521554,
                48.11158495436985
              ],
              [
                -1.658882730994795,
                48.111508405071056
              ],
              [
                -1.658901338659128,
                48.11152467757721
              ],
              [
                -1.659032418902358,
                48.1114901981253
              ],
              [
                -1.659029407362695,
                48.111471891645415
              ],
              [
                -1.659229706403386,
                48.11144868812914
              ],
              [
                -1.659485926018606,
                48.1114554095128
              ],
              [
                -1.659497319514452,
                48.11145260865481
              ],
              [
                -1.659559947066968,
                48.11143871918454
              ],
              [
                -1.659615181162483,
                48.11142276040323
              ],
              [
                -1.659625859832355,
                48.111419970478586
              ],
              [
                -1.659633537699913,
                48.11143254361805
              ],
              [
                -1.659694628271525,
                48.1115354795431
              ],
              [
                -1.659696433699337,
                48.1115405099918
              ],
              [
                -1.659720594274934,
                48.111553742427475
              ],
              [
                -1.659742763625371,
                48.111567214140635
              ],
              [
                -1.659771682949675,
                48.111584627470144
              ],
              [
                -1.659801555530273,
                48.111605293740325
              ],
              [
                -1.659829045365701,
                48.11162229823821
              ],
              [
                -1.65986008984428,
                48.11164549494032
              ],
              [
                -1.659900015526837,
                48.111677516233115
              ],
              [
                -1.659938193371194,
                48.11170841984788
              ],
              [
                -1.659965068311903,
                48.111733314606056
              ],
              [
                -1.660002063403666,
                48.11176753699089
              ],
              [
                -1.660031851183407,
                48.111800037588424
              ],
              [
                -1.660078895791048,
                48.111852631699655
              ],
              [
                -1.660127914417774,
                48.111915782827566
              ],
              [
                -1.66013807847902,
                48.11193697115088
              ],
              [
                -1.660155259650597,
                48.11196304627422
              ],
              [
                -1.660168506954246,
                48.11198305088789
              ],
              [
                -1.660183163398345,
                48.11200425086564
              ],
              [
                -1.660200775741909,
                48.11203487328884
              ],
              [
                -1.660223519607314,
                48.11208769173948
              ],
              [
                -1.660235331872597,
                48.11212180206497
              ],
              [
                -1.660243650932492,
                48.112149551903364
              ],
              [
                -1.660253664974085,
                48.1121838783772
              ],
              [
                -1.660261212105675,
                48.11221681357524
              ],
              [
                -1.660267173244898,
                48.11225931114694
              ],
              [
                -1.660271427350724,
                48.112290423603284
              ],
              [
                -1.660274441298025,
                48.112325292390416
              ],
              [
                -1.660274959955844,
                48.112358188065315
              ],
              [
                -1.660274516405304,
                48.112399598126764
              ],
              [
                -1.660267781397313,
                48.112453948326696
              ],
              [
                -1.660373621349342,
                48.112623794304916
              ],
              [
                -1.660851952180727,
                48.11339136638948
              ],
              [
                -1.660973232092106,
                48.1134466918313
              ],
              [
                -1.661070008577487,
                48.11345624347708
              ],
              [
                -1.661077410019114,
                48.113470797468814
              ],
              [
                -1.661099382337175,
                48.113506235839644
              ],
              [
                -1.661012613150191,
                48.11354666327027
              ],
              [
                -1.660910507418267,
                48.113594237774386
              ],
              [
                -1.660759390307254,
                48.113665115175664
              ],
              [
                -1.660287591290546,
                48.11379893809653
              ],
              [
                -1.660214668991838,
                48.113818664956845
              ],
              [
                -1.659729959098735,
                48.1139537944458
              ],
              [
                -1.659623298734501,
                48.113982673257816
              ],
              [
                -1.659488162217663,
                48.114020144118186
              ],
              [
                -1.659456807660099,
                48.113971505765626
              ],
              [
                -1.659415335962977,
                48.11390791697176
              ],
              [
                -1.659314693286943,
                48.11373966621334
              ],
              [
                -1.659286394954418,
                48.11368449203643
              ],
              [
                -1.659263661893715,
                48.113634813188526
              ],
              [
                -1.659248974204002,
                48.1136019951815
              ],
              [
                -1.659239619065917,
                48.113581092086
              ],
              [
                -1.659227769911143,
                48.11355526663064
              ],
              [
                -1.659214511732818,
                48.113526370684156
              ],
              [
                -1.659190668532066,
                48.1134752897039
              ],
              [
                -1.659167325421724,
                48.113424277662
              ],
              [
                -1.659149964451735,
                48.11338566871785
              ],
              [
                -1.659144428376715,
                48.11337273664108
              ],
              [
                -1.659119402387901,
                48.11331955364371
              ],
              [
                -1.659104840443683,
                48.113287872172734
              ],
              [
                -1.659097227530902,
                48.11327109021232
              ],
              [
                -1.659073278965896,
                48.11321875109728
              ],
              [
                -1.659051166371442,
                48.1131704248012
              ],
              [
                -1.658992921200845,
                48.11304229312375
              ]
            ]
          ]
        ]
      },
      "properties": {
        "kind": "boundary",
        "source": "Rennes Métropole",
        "source_id": "v_evert_rm.fid--d27bfbb_1a08501cc7c_-2cb5"
      }
    },
    {
      "type": "Feature",
      "id": "osm-water-159017619",
      "geometry": {
        "type": "Polygon",
        "coordinates": [
          [
            [
              -1.659941,
              48.1125948
            ],
            [
              -1.6599449,
              48.112617
            ],
            [
              -1.6599511,
              48.1126318
            ],
            [
              -1.6599626,
              48.1126439
            ],
            [
              -1.6599834,
              48.1126545
            ],
            [
              -1.6600418,
              48.1126801
            ],
            [
              -1.660072,
              48.1127054
            ],
            [
              -1.6600755,
              48.1127343
            ],
            [
              -1.6600638,
              48.1127608
            ],
            [
              -1.6600442,
              48.1127679
            ],
            [
              -1.6600108,
              48.11278
            ],
            [
              -1.6598975,
              48.1128148
            ],
            [
              -1.6598803,
              48.1128109
            ],
            [
              -1.6598519,
              48.1128166
            ],
            [
              -1.6598362,
              48.112823
            ],
            [
              -1.65982,
              48.1128348
            ],
            [
              -1.6598138,
              48.1128496
            ],
            [
              -1.6597845,
              48.1128621
            ],
            [
              -1.6597799,
              48.1129083
            ],
            [
              -1.6597865,
              48.1129651
            ],
            [
              -1.6597734,
              48.1129991
            ],
            [
              -1.6597493,
              48.1129703
            ],
            [
              -1.6597422,
              48.1129004
            ],
            [
              -1.6597442,
              48.1128609
            ],
            [
              -1.6597359,
              48.1128603
            ],
            [
              -1.659728,
              48.1128578
            ],
            [
              -1.6597184,
              48.1128505
            ],
            [
              -1.6597122,
              48.1128422
            ],
            [
              -1.6597041,
              48.1128173
            ],
            [
              -1.6596588,
              48.1127203
            ],
            [
              -1.6595877,
              48.1126002
            ],
            [
              -1.6595628,
              48.1125472
            ],
            [
              -1.6595748,
              48.1125315
            ],
            [
              -1.6595715,
              48.1125208
            ],
            [
              -1.6595587,
              48.1125091
            ],
            [
              -1.6595386,
              48.1125051
            ],
            [
              -1.6594691,
              48.1123704
            ],
            [
              -1.6594645,
              48.1123122
            ],
            [
              -1.659466,
              48.1122485
            ],
            [
              -1.6594699,
              48.1122058
            ],
            [
              -1.6594765,
              48.1121612
            ],
            [
              -1.6595161,
              48.1121716
            ],
            [
              -1.6595844,
              48.1121922
            ],
            [
              -1.6596155,
              48.1122037
            ],
            [
              -1.6596524,
              48.1122078
            ],
            [
              -1.6596823,
              48.1122019
            ],
            [
              -1.6597124,
              48.1121854
            ],
            [
              -1.659746,
              48.1121505
            ],
            [
              -1.6597867,
              48.1121358
            ],
            [
              -1.6598309,
              48.1121381
            ],
            [
              -1.6598672,
              48.1121564
            ],
            [
              -1.6598776,
              48.1121849
            ],
            [
              -1.6598885,
              48.1122627
            ],
            [
              -1.6599158,
              48.1123262
            ],
            [
              -1.6599331,
              48.1123927
            ],
            [
              -1.6599402,
              48.1124551
            ],
            [
              -1.659941,
              48.1125948
            ]
          ]
        ]
      },
      "properties": {
        "kind": "water",
        "source": "OpenStreetMap",
        "source_id": "way/159017619"
      }
    },
    {
      "type": "Feature",
      "id": "osm-path-5891248",
      "geometry": {
        "type": "LineString",
        "coordinates": [
          [
            -1.6607436,
            48.1134076
          ],
          [
            -1.6608283,
            48.1134298
          ],
          [
            -1.660913,
            48.1134765
          ],
          [
            -1.6609302,
            48.1134983
          ]
        ]
      },
      "properties": {
        "kind": "path",
        "source": "OpenStreetMap",
        "source_id": "way/5891248"
      }
    },
    {
      "type": "Feature",
      "id": "osm-path-5891249",
      "geometry": {
        "type": "LineString",
        "coordinates": [
          [
            -1.6596452,
            48.1138387
          ],
          [
            -1.6596477,
            48.1138815
          ],
          [
            -1.6596707,
            48.1139326
          ]
        ]
      },
      "properties": {
        "kind": "path",
        "source": "OpenStreetMap",
        "source_id": "way/5891249"
      }
    },
    {
      "type": "Feature",
      "id": "osm-path-5891251",
      "geometry": {
        "type": "LineString",
        "coordinates": [
          [
            -1.6601003,
            48.1136271
          ],
          [
            -1.660068,
            48.1136416
          ],
          [
            -1.6599256,
            48.1136964
          ],
          [
            -1.6598318,
            48.1137272
          ],
          [
            -1.6597402,
            48.1137584
          ],
          [
            -1.6597052,
            48.1137762
          ],
          [
            -1.6596789,
            48.1137954
          ],
          [
            -1.6596452,
            48.1138387
          ]
        ]
      },
      "properties": {
        "kind": "path",
        "source": "OpenStreetMap",
        "source_id": "way/5891251"
      }
    },
    {
      "type": "Feature",
      "id": "osm-path-5891252",
      "geometry": {
        "type": "LineString",
        "coordinates": [
          [
            -1.6598413,
            48.1133927
          ],
          [
            -1.6597177,
            48.1133259
          ],
          [
            -1.6595937,
            48.1132782
          ],
          [
            -1.6594641,
            48.1132403
          ],
          [
            -1.6594462,
            48.1132374
          ],
          [
            -1.6594258,
            48.1132386
          ],
          [
            -1.6593901,
            48.113245
          ],
          [
            -1.6593339,
            48.1132472
          ],
          [
            -1.6592895,
            48.1132428
          ],
          [
            -1.6592577,
            48.1132263
          ],
          [
            -1.6592387,
            48.1131964
          ],
          [
            -1.6592147,
            48.1130718
          ],
          [
            -1.6591739,
            48.1129481
          ],
          [
            -1.6591404,
            48.1128837
          ],
          [
            -1.6591057,
            48.1128384
          ],
          [
            -1.658894,
            48.1126264
          ]
        ]
      },
      "properties": {
        "kind": "path",
        "source": "OpenStreetMap",
        "source_id": "way/5891252"
      }
    },
    {
      "type": "Feature",
      "id": "osm-path-5891845",
      "geometry": {
        "type": "LineString",
        "coordinates": [
          [
            -1.6600053,
            48.1119901
          ],
          [
            -1.6599953,
            48.1120089
          ],
          [
            -1.659973,
            48.1120306
          ],
          [
            -1.6599234,
            48.1120572
          ],
          [
            -1.6598933,
            48.1120436
          ],
          [
            -1.6598189,
            48.1119927
          ],
          [
            -1.6597975,
            48.1119722
          ]
        ]
      },
      "properties": {
        "kind": "path",
        "source": "OpenStreetMap",
        "source_id": "way/5891845"
      }
    },
    {
      "type": "Feature",
      "id": "osm-path-8059473",
      "geometry": {
        "type": "LineString",
        "coordinates": [
          [
            -1.658747,
            48.1118016
          ],
          [
            -1.6587219,
            48.1117481
          ],
          [
            -1.6587069,
            48.1117138
          ],
          [
            -1.6587027,
            48.1116818
          ],
          [
            -1.6587165,
            48.1116479
          ],
          [
            -1.6587996,
            48.1115814
          ],
          [
            -1.6589736,
            48.1115237
          ]
        ]
      },
      "properties": {
        "kind": "path",
        "source": "OpenStreetMap",
        "source_id": "way/8059473"
      }
    },
    {
      "type": "Feature",
      "id": "osm-path-159017620",
      "geometry": {
        "type": "LineString",
        "coordinates": [
          [
            -1.6599416,
            48.113118
          ],
          [
            -1.65995,
            48.1130861
          ],
          [
            -1.6599513,
            48.1130517
          ],
          [
            -1.6599396,
            48.1130174
          ],
          [
            -1.6599217,
            48.1129916
          ],
          [
            -1.6598891,
            48.1129656
          ],
          [
            -1.6598509,
            48.1129449
          ],
          [
            -1.6598153,
            48.1129336
          ]
        ]
      },
      "properties": {
        "kind": "path",
        "source": "OpenStreetMap",
        "source_id": "way/159017620"
      }
    },
    {
      "type": "Feature",
      "id": "osm-path-159017622",
      "geometry": {
        "type": "LineString",
        "coordinates": [
          [
            -1.6606479,
            48.1131858
          ],
          [
            -1.6605367,
            48.1131426
          ],
          [
            -1.6604757,
            48.1131203
          ],
          [
            -1.6603963,
            48.1130973
          ],
          [
            -1.6603115,
            48.1130768
          ],
          [
            -1.6602543,
            48.1130714
          ],
          [
            -1.6601947,
            48.113069
          ],
          [
            -1.660134,
            48.1130753
          ],
          [
            -1.6600704,
            48.1130862
          ],
          [
            -1.6599416,
            48.113118
          ]
        ]
      },
      "properties": {
        "kind": "path",
        "source": "OpenStreetMap",
        "source_id": "way/159017622"
      }
    },
    {
      "type": "Feature",
      "id": "osm-path-280450812",
      "geometry": {
        "type": "LineString",
        "coordinates": [
          [
            -1.6599234,
            48.1120572
          ],
          [
            -1.6600941,
            48.1123598
          ],
          [
            -1.6602451,
            48.1126466
          ]
        ]
      },
      "properties": {
        "kind": "path",
        "source": "OpenStreetMap",
        "source_id": "way/280450812"
      }
    },
    {
      "type": "Feature",
      "id": "osm-path-280541032",
      "geometry": {
        "type": "LineString",
        "coordinates": [
          [
            -1.6604594,
            48.1136256
          ],
          [
            -1.6603954,
            48.1135289
          ]
        ]
      },
      "properties": {
        "kind": "path",
        "source": "OpenStreetMap",
        "source_id": "way/280541032"
      }
    },
    {
      "type": "Feature",
      "id": "osm-path-280541033",
      "geometry": {
        "type": "LineString",
        "coordinates": [
          [
            -1.6586398,
            48.1121213
          ],
          [
            -1.6586822,
            48.1122062
          ]
        ]
      },
      "properties": {
        "kind": "path",
        "source": "OpenStreetMap",
        "source_id": "way/280541033"
      }
    },
    {
      "type": "Feature",
      "id": "osm-path-280541034",
      "geometry": {
        "type": "LineString",
        "coordinates": [
          [
            -1.6596162,
            48.1117277
          ],
          [
            -1.65958,
            48.1117176
          ],
          [
            -1.6595274,
            48.1117018
          ],
          [
            -1.6594356,
            48.111685
          ],
          [
            -1.6593409,
            48.1116881
          ],
          [
            -1.6592014,
            48.111698
          ],
          [
            -1.6591567,
            48.1117068
          ],
          [
            -1.659114,
            48.1117153
          ]
        ]
      },
      "properties": {
        "kind": "path",
        "source": "OpenStreetMap",
        "source_id": "way/280541034"
      }
    },
    {
      "type": "Feature",
      "id": "osm-path-280541035",
      "geometry": {
        "type": "LineString",
        "coordinates": [
          [
            -1.6592722,
            48.1120814
          ],
          [
            -1.6597566,
            48.1119905
          ],
          [
            -1.6597975,
            48.1119722
          ]
        ]
      },
      "properties": {
        "kind": "path",
        "source": "OpenStreetMap",
        "source_id": "way/280541035"
      }
    },
    {
      "type": "Feature",
      "id": "osm-path-280541036",
      "geometry": {
        "type": "LineString",
        "coordinates": [
          [
            -1.659114,
            48.1117153
          ],
          [
            -1.658747,
            48.1118016
          ],
          [
            -1.6586084,
            48.1118396
          ],
          [
            -1.6585924,
            48.1118459
          ],
          [
            -1.658585,
            48.1118545
          ],
          [
            -1.6585841,
            48.1118656
          ],
          [
            -1.6585855,
            48.1118754
          ],
          [
            -1.6586024,
            48.1119995
          ],
          [
            -1.6586131,
            48.1120562
          ],
          [
            -1.6586398,
            48.1121213
          ]
        ]
      },
      "properties": {
        "kind": "path",
        "source": "OpenStreetMap",
        "source_id": "way/280541036"
      }
    },
    {
      "type": "Feature",
      "id": "osm-path-284601275",
      "geometry": {
        "type": "LineString",
        "coordinates": [
          [
            -1.6591057,
            48.1128384
          ],
          [
            -1.6592165,
            48.1128282
          ],
          [
            -1.659281,
            48.1128304
          ],
          [
            -1.6593353,
            48.1128349
          ],
          [
            -1.6595497,
            48.1128784
          ]
        ]
      },
      "properties": {
        "kind": "path",
        "source": "OpenStreetMap",
        "source_id": "way/284601275"
      }
    },
    {
      "type": "Feature",
      "id": "osm-path-299251395",
      "geometry": {
        "type": "LineString",
        "coordinates": [
          [
            -1.6592722,
            48.1120814
          ],
          [
            -1.6593347,
            48.112572
          ],
          [
            -1.6593557,
            48.1126215
          ],
          [
            -1.6594324,
            48.1127178
          ],
          [
            -1.6595497,
            48.1128784
          ],
          [
            -1.6596988,
            48.1129094
          ]
        ]
      },
      "properties": {
        "kind": "path",
        "source": "OpenStreetMap",
        "source_id": "way/299251395"
      }
    },
    {
      "type": "Feature",
      "id": "osm-path-409869630",
      "geometry": {
        "type": "LineString",
        "coordinates": [
          [
            -1.6598153,
            48.1129336
          ],
          [
            -1.6603484,
            48.112771
          ]
        ]
      },
      "properties": {
        "kind": "path",
        "source": "OpenStreetMap",
        "source_id": "way/409869630"
      }
    },
    {
      "type": "Feature",
      "id": "osm-path-409869631",
      "geometry": {
        "type": "LineString",
        "coordinates": [
          [
            -1.658894,
            48.1126264
          ],
          [
            -1.6586822,
            48.1122062
          ],
          [
            -1.6592286,
            48.1120894
          ],
          [
            -1.6592722,
            48.1120814
          ]
        ]
      },
      "properties": {
        "kind": "path",
        "source": "OpenStreetMap",
        "source_id": "way/409869631"
      }
    },
    {
      "type": "Feature",
      "id": "osm-path-409869632",
      "geometry": {
        "type": "LineString",
        "coordinates": [
          [
            -1.6601003,
            48.1136271
          ],
          [
            -1.6600402,
            48.1135911
          ],
          [
            -1.6600136,
            48.1135734
          ],
          [
            -1.659988,
            48.1135521
          ],
          [
            -1.6598413,
            48.1133927
          ]
        ]
      },
      "properties": {
        "kind": "path",
        "source": "OpenStreetMap",
        "source_id": "way/409869632"
      }
    },
    {
      "type": "Feature",
      "id": "osm-path-409869633",
      "geometry": {
        "type": "LineString",
        "coordinates": [
          [
            -1.6596707,
            48.1139326
          ],
          [
            -1.6602103,
            48.1137816
          ],
          [
            -1.6601477,
            48.1136912
          ],
          [
            -1.6601132,
            48.1136402
          ],
          [
            -1.6601003,
            48.1136271
          ]
        ]
      },
      "properties": {
        "kind": "path",
        "source": "OpenStreetMap",
        "source_id": "way/409869633"
      }
    },
    {
      "type": "Feature",
      "id": "osm-path-409869634",
      "geometry": {
        "type": "LineString",
        "coordinates": [
          [
            -1.6599416,
            48.113118
          ],
          [
            -1.6598944,
            48.1131513
          ],
          [
            -1.6598498,
            48.1131868
          ],
          [
            -1.6598274,
            48.1132346
          ],
          [
            -1.6598243,
            48.1132846
          ],
          [
            -1.6598413,
            48.1133927
          ]
        ]
      },
      "properties": {
        "kind": "path",
        "source": "OpenStreetMap",
        "source_id": "way/409869634"
      }
    },
    {
      "type": "Feature",
      "id": "osm-path-409869635",
      "geometry": {
        "type": "LineString",
        "coordinates": [
          [
            -1.6596452,
            48.1138387
          ],
          [
            -1.6596156,
            48.1138061
          ],
          [
            -1.6595524,
            48.1137029
          ],
          [
            -1.6594669,
            48.1135786
          ],
          [
            -1.6594147,
            48.1133466
          ],
          [
            -1.6593901,
            48.113245
          ]
        ]
      },
      "properties": {
        "kind": "path",
        "source": "OpenStreetMap",
        "source_id": "way/409869635"
      }
    },
    {
      "type": "Feature",
      "id": "osm-path-409869638",
      "geometry": {
        "type": "LineString",
        "coordinates": [
          [
            -1.6602451,
            48.1126466
          ],
          [
            -1.6603484,
            48.112771
          ],
          [
            -1.6606091,
            48.1130923
          ],
          [
            -1.6606479,
            48.1131858
          ]
        ]
      },
      "properties": {
        "kind": "path",
        "source": "OpenStreetMap",
        "source_id": "way/409869638"
      }
    },
    {
      "type": "Feature",
      "id": "osm-path-439422624",
      "geometry": {
        "type": "LineString",
        "coordinates": [
          [
            -1.6609176,
            48.1135287
          ],
          [
            -1.6608741,
            48.1135413
          ]
        ]
      },
      "properties": {
        "kind": "path",
        "source": "OpenStreetMap",
        "source_id": "way/439422624"
      }
    },
    {
      "type": "Feature",
      "id": "osm-path-691063712",
      "geometry": {
        "type": "LineString",
        "coordinates": [
          [
            -1.6589736,
            48.1115237
          ],
          [
            -1.659098,
            48.111612
          ]
        ]
      },
      "properties": {
        "kind": "path",
        "source": "OpenStreetMap",
        "source_id": "way/691063712"
      }
    },
    {
      "type": "Feature",
      "id": "osm-path-691063713",
      "geometry": {
        "type": "LineString",
        "coordinates": [
          [
            -1.659098,
            48.111612
          ],
          [
            -1.6590565,
            48.1116274
          ],
          [
            -1.6590852,
            48.1116713
          ]
        ]
      },
      "properties": {
        "kind": "path",
        "source": "OpenStreetMap",
        "source_id": "way/691063713"
      }
    },
    {
      "type": "Feature",
      "id": "osm-path-691063714",
      "geometry": {
        "type": "LineString",
        "coordinates": [
          [
            -1.6590852,
            48.1116713
          ],
          [
            -1.659114,
            48.1117153
          ]
        ]
      },
      "properties": {
        "kind": "path",
        "source": "OpenStreetMap",
        "source_id": "way/691063714"
      }
    },
    {
      "type": "Feature",
      "id": "osm-path-691063715",
      "geometry": {
        "type": "LineString",
        "coordinates": [
          [
            -1.6596988,
            48.1129094
          ],
          [
            -1.6598153,
            48.1129336
          ]
        ]
      },
      "properties": {
        "kind": "path",
        "source": "OpenStreetMap",
        "source_id": "way/691063715"
      }
    },
    {
      "type": "Feature",
      "id": "osm-path-730909895",
      "geometry": {
        "type": "LineString",
        "coordinates": [
          [
            -1.6597975,
            48.1119722
          ],
          [
            -1.6598263,
            48.1119583
          ],
          [
            -1.6599101,
            48.1119556
          ],
          [
            -1.6599785,
            48.1119708
          ],
          [
            -1.6600053,
            48.1119901
          ],
          [
            -1.6601436,
            48.1119526
          ]
        ]
      },
      "properties": {
        "kind": "path",
        "source": "OpenStreetMap",
        "source_id": "way/730909895"
      }
    },
    {
      "type": "Feature",
      "id": "osm-path-730909896",
      "geometry": {
        "type": "LineString",
        "coordinates": [
          [
            -1.6606479,
            48.1131858
          ],
          [
            -1.6607436,
            48.1134076
          ]
        ]
      },
      "properties": {
        "kind": "path",
        "source": "OpenStreetMap",
        "source_id": "way/730909896"
      }
    },
    {
      "type": "Feature",
      "id": "osm-path-730909897",
      "geometry": {
        "type": "LineString",
        "coordinates": [
          [
            -1.6607436,
            48.1134076
          ],
          [
            -1.6605606,
            48.1134667
          ],
          [
            -1.6603954,
            48.1135289
          ],
          [
            -1.6601003,
            48.1136271
          ]
        ]
      },
      "properties": {
        "kind": "path",
        "source": "OpenStreetMap",
        "source_id": "way/730909897"
      }
    },
    {
      "type": "Feature",
      "id": "osm-path-730909898",
      "geometry": {
        "type": "LineString",
        "coordinates": [
          [
            -1.6589736,
            48.1115237
          ],
          [
            -1.6591247,
            48.1114868
          ],
          [
            -1.6592471,
            48.1114812
          ],
          [
            -1.6594044,
            48.1114868
          ],
          [
            -1.6594752,
            48.1115012
          ],
          [
            -1.6595304,
            48.1115245
          ],
          [
            -1.659564,
            48.1115605
          ],
          [
            -1.6595781,
            48.1116079
          ],
          [
            -1.6596092,
            48.1117035
          ],
          [
            -1.6596162,
            48.1117277
          ],
          [
            -1.659632,
            48.1117418
          ],
          [
            -1.6596578,
            48.1117672
          ],
          [
            -1.6597164,
            48.1118469
          ],
          [
            -1.6597774,
            48.1119432
          ],
          [
            -1.6597975,
            48.1119722
          ]
        ]
      },
      "properties": {
        "kind": "path",
        "source": "OpenStreetMap",
        "source_id": "way/730909898"
      }
    },
    {
      "type": "Feature",
      "id": "osm-path-1366638622",
      "geometry": {
        "type": "LineString",
        "coordinates": [
          [
            -1.6591567,
            48.1117068
          ],
          [
            -1.6591432,
            48.1116719
          ]
        ]
      },
      "properties": {
        "kind": "path",
        "source": "OpenStreetMap",
        "source_id": "way/1366638622"
      }
    },
    {
      "type": "Feature",
      "id": "osm-path-1545360723",
      "geometry": {
        "type": "LineString",
        "coordinates": [
          [
            -1.6589564,
            48.1114917
          ],
          [
            -1.6589736,
            48.1115237
          ]
        ]
      },
      "properties": {
        "kind": "path",
        "source": "OpenStreetMap",
        "source_id": "way/1545360723"
      }
    },
    {
      "type": "Feature",
      "id": "osm-path-1545360730",
      "geometry": {
        "type": "LineString",
        "coordinates": [
          [
            -1.6609176,
            48.1135287
          ],
          [
            -1.6609474,
            48.1135201
          ]
        ]
      },
      "properties": {
        "kind": "path",
        "source": "OpenStreetMap",
        "source_id": "way/1545360730"
      }
    },
    {
      "type": "Feature",
      "id": "osm-path-1545360731",
      "geometry": {
        "type": "LineString",
        "coordinates": [
          [
            -1.6609302,
            48.1134983
          ],
          [
            -1.6609474,
            48.1135201
          ],
          [
            -1.6609777,
            48.1135585
          ]
        ]
      },
      "properties": {
        "kind": "path",
        "source": "OpenStreetMap",
        "source_id": "way/1545360731"
      }
    },
    {
      "type": "Feature",
      "id": "rennes-hotel-oberthur",
      "geometry": {
        "type": "Polygon",
        "coordinates": [
          [
            [
              -1.660759,
              48.113665
            ],
            [
              -1.660288,
              48.113799
            ],
            [
              -1.660276,
              48.113781
            ],
            [
              -1.660268,
              48.113769
            ],
            [
              -1.660259,
              48.113754
            ],
            [
              -1.660242,
              48.113759
            ],
            [
              -1.6602,
              48.113694
            ],
            [
              -1.660272,
              48.113673
            ],
            [
              -1.660261,
              48.113656
            ],
            [
              -1.660377,
              48.113623
            ],
            [
              -1.660391,
              48.113644
            ],
            [
              -1.660449,
              48.113628
            ],
            [
              -1.660479,
              48.113619
            ],
            [
              -1.660537,
              48.113602
            ],
            [
              -1.660528,
              48.113589
            ],
            [
              -1.660568,
              48.113578
            ],
            [
              -1.660544,
              48.113541
            ],
            [
              -1.660825,
              48.11346
            ],
            [
              -1.660911,
              48.113594
            ],
            [
              -1.660759,
              48.113665
            ]
          ]
        ]
      },
      "properties": {
        "kind": "building",
        "source": "Rennes Métropole",
        "source_id": "bapub_53269",
        "label": "Hôtel Oberthür",
        "height_m": 15,
        "photo": {
          "url": "https://commons.wikimedia.org/wiki/Special:FilePath/Rennes%20-%20Parc%20Oberth%C3%BCr%20-%20Demeure%20des%20Oberth%C3%BCr%20-%2020080706.jpg?width=960",
          "page_url": "https://commons.wikimedia.org/wiki/File:Rennes_-_Parc_Oberth%C3%BCr_-_Demeure_des_Oberth%C3%BCr_-_20080706.jpg",
          "author": "Sémhur",
          "license": "CC BY-SA 3.0",
          "license_url": "https://creativecommons.org/licenses/by-sa/3.0/"
        }
      }
    },
    {
      "type": "Feature",
      "id": "osm-kiosque-oberthur",
      "geometry": {
        "type": "Polygon",
        "coordinates": [
          [
            [
              -1.6591624,
              48.1116468
            ],
            [
              -1.659165,
              48.1116462
            ],
            [
              -1.6591402,
              48.1116086
            ],
            [
              -1.6590723,
              48.1116286
            ],
            [
              -1.6590971,
              48.1116663
            ],
            [
              -1.6590988,
              48.1116652
            ],
            [
              -1.6591624,
              48.1116468
            ]
          ]
        ]
      },
      "properties": {
        "kind": "landmark",
        "source": "OpenStreetMap",
        "source_id": "way/80952595",
        "label": "Kiosque",
        "height_m": 4.5,
        "photo": {
          "url": "https://upload.wikimedia.org/wikipedia/commons/thumb/0/0e/Rennes_ParcOberthur_chalet.jpg/960px-Rennes_ParcOberthur_chalet.jpg",
          "page_url": "https://commons.wikimedia.org/wiki/File:Rennes_ParcOberthur_chalet.jpg",
          "author": "Pymouss",
          "license": "CC BY-SA 3.0",
          "license_url": "https://creativecommons.org/licenses/by-sa/3.0/"
        }
      }
    },
    {
      "type": "Feature",
      "id": "osm-entrance-48057219",
      "geometry": {
        "type": "Point",
        "coordinates": [
          -1.6597055,
          48.1139598
        ]
      },
      "properties": {
        "kind": "entrance",
        "label": "Entrée",
        "source": "OpenStreetMap",
        "source_id": "node/48057219"
      }
    },
    {
      "type": "Feature",
      "id": "osm-entrance-1711226368",
      "geometry": {
        "type": "Point",
        "coordinates": [
          -1.6589564,
          48.1114917
        ]
      },
      "properties": {
        "kind": "entrance",
        "label": "Entrée",
        "source": "OpenStreetMap",
        "source_id": "node/1711226368"
      }
    },
    {
      "type": "Feature",
      "id": "osm-entrance-2024712976",
      "geometry": {
        "type": "Point",
        "coordinates": [
          -1.6609777,
          48.1135585
        ]
      },
      "properties": {
        "kind": "entrance",
        "label": "Entrée",
        "source": "OpenStreetMap",
        "source_id": "node/2024712976"
      }
    },
    {
      "type": "Feature",
      "id": "osm-entrance-2026432475",
      "geometry": {
        "type": "Point",
        "coordinates": [
          -1.6601436,
          48.1119526
        ]
      },
      "properties": {
        "kind": "entrance",
        "label": "Entrée",
        "source": "OpenStreetMap",
        "source_id": "node/2026432475"
      }
    },
    {
      "type": "Feature",
      "id": "osm-entrance-2026432479",
      "geometry": {
        "type": "Point",
        "coordinates": [
          -1.6588051,
          48.1126474
        ]
      },
      "properties": {
        "kind": "entrance",
        "label": "Entrée",
        "source": "OpenStreetMap",
        "source_id": "node/2026432479"
      }
    }
  ]
}
